NORAD_CAT_ID,OBJECT_NAME,OBJECT_TYPE,EPOCH,MEAN_MOTION,ECCENTRICITY,INCLINATION,RA_OF_ASC_NODE,ARG_OF_PERICENTER,MEAN_ANOMALY,BSTAR,MEAN_MOTION_DOT,MEAN_MOTION_DDOT,TLE_LINE0,TLE_LINE1,TLE_LINE2,SEMIMAJOR_AXIS,PERIOD,APOGEE,PERIGEE,DECAYED
52264.0,STARLINK-3795,PAYLOAD,2024-06-08 02:15:31,15.08833254,0.000107,53.2195,100.3776,82.9979,277.1135,6.1348e-05,6.89e-06,0.0,0 STARLINK-3795,1 52264U 22041D   24160.09411821  .00000689  00000-0  61348-4 0  9996,2 52264  53.2195 100.3776 0001070  82.9979 277.1135 15.08833254119019,6917.901,95.438,540.506,539.026,0.0
52264.0,STARLINK-3795,PAYLOAD,2024-06-08 13:23:12,15.08854773,0.0001513,53.2193,98.2956,90.3509,269.7657,7.687e-05,9.36e-06,0.0,0 STARLINK-3795,1 52264U 22041D   24160.55778197  .00000936  00000-0  76870-4 0  9990,2 52264  53.2193  98.2956 0001513  90.3509 269.7657 15.08854773117873,6917.835,95.437,540.747,538.654,0.0
52264.0,STARLINK-3795,PAYLOAD,2024-06-08 19:44:46,15.08836402,0.0002396,53.2179,97.1067,90.6182,269.5084,8.1174e-05,1.004e-05,0.0,0 STARLINK-3795,1 52264U 22041D   24160.82275627  .00001004  00000-0  81174-4 0  9990,2 52264  53.2179  97.1067 0002396  90.6182 269.5084 15.08836402119129,6917.891,95.438,541.414,538.099,0.0
52264.0,STARLINK-3795,PAYLOAD,2024-06-09 02:06:19,15.08829806,0.0001803,53.2167,95.9173,97.0951,263.0246,1.9013e-05,1.4e-07,0.0,0 STARLINK-3795,1 52264U 22041D   24161.08772166  .00000014  00000-0  19013-4 0  9992,2 52264  53.2167  95.9173 0001803  97.0951 263.0246 15.08829806119160,6917.912,95.438,541.024,538.529,0.0
52264.0,STARLINK-3795,PAYLOAD,2024-06-09 22:46:19,15.08837177,0.000138,53.2181,92.0521,102.109,258.0057,5.616e-05,6.06e-06,0.0,0 STARLINK-3795,1 52264U 22041D   24161.94883718  .00000606  00000-0  56160-4 0  9994,2 52264  53.2181  92.0521 0001380 102.1090 258.0057 15.08837177118087,6917.889,95.438,540.709,538.799,0.0
52264.0,STARLINK-3795,PAYLOAD,2024-06-10 05:07:51,15.08844021,0.0001253,53.2171,90.8637,93.2113,266.9022,3.3464e-05,2.45e-06,0.0,0 STARLINK-3795,1 52264U 22041D   24162.21379528  .00000245  00000-0  33464-4 0  9995,2 52264  53.2171  90.8637 0001253  93.2113 266.9022 15.08844021119330,6917.868,95.437,540.6,538.866,0.0
52264.0,STARLINK-3795,PAYLOAD,2024-06-10 22:37:06,15.08832082,0.000153,53.218,87.5908,104.3455,255.7708,0.00011501,1.542e-05,0.0,0 STARLINK-3795,1 52264U 22041D   24162.94244189  .00001542  00000-0  11501-3 0  9997,2 52264  53.2180  87.5908 0001530 104.3455 255.7708 15.08832082118234,6917.905,95.438,540.828,538.711,0.0
52264.0,STARLINK-3795,PAYLOAD,2024-06-11 01:47:53,15.08834844,0.0001227,53.218,86.9994,96.0573,264.0559,0.00012219,1.657e-05,0.0,0 STARLINK-3795,1 52264U 22041D   24163.07492125  .00001657  00000-0  12219-3 0  9991,2 52264  53.2180  86.9994 0001227  96.0573 264.0559 15.08834844119464,6917.896,95.438,540.61,538.912,0.0
52264.0,STARLINK-3795,PAYLOAD,2024-06-11 11:20:11,15.0884833,0.000125,53.2183,85.2171,94.9674,265.1461,0.00018841,2.713e-05,0.0,0 STARLINK-3795,1 52264U 22041D   24163.47235157  .00002713  00000-0  18841-3 0  9996,2 52264  53.2183  85.2171 0001250  94.9674 265.1461 15.08848330118313,6917.855,95.437,540.585,538.855,0.0
52264.0,STARLINK-3795,PAYLOAD,2024-06-12 01:38:40,15.08839057,0.0001277,53.218,82.5412,102.5315,257.582,4.0609e-05,3.58e-06,0.0,0 STARLINK-3795,1 52264U 22041D   24164.06852199  .00000358  00000-0  40609-4 0  9994,2 52264  53.2180  82.5412 0001277 102.5315 257.5820 15.08839057118405,6917.883,95.438,540.632,538.865,0.0
52264.0,STARLINK-3795,PAYLOAD,2024-06-12 11:10:58,15.08850278,0.0001505,53.2204,80.7593,111.194,248.9213,9.7811e-05,1.269e-05,0.0,0 STARLINK-3795,1 52264U 22041D   24164.46595332  .00001269  00000-0  97811-4 0  9990,2 52264  53.2204  80.7593 0001505 111.1940 248.9213 15.08850278119674,6917.849,95.437,540.755,538.673,0.0
52264.0,STARLINK-3795,PAYLOAD,2024-06-12 22:18:42,15.08828606,0.0001327,53.2188,78.6748,96.0742,264.0401,-5.7189e-05,-1.198e-05,0.0,0 STARLINK-3795,1 52264U 22041D   24164.92965320 -.00001198  00000-0 -57189-4 0  9996,2 52264  53.2188  78.6748 0001327  96.0742 264.0401 15.08828606118538,6917.915,95.438,540.698,538.862,0.0
52264.0,STARLINK-3795,PAYLOAD,2024-06-13 04:40:14,15.08833489,0.0001453,53.2189,77.4833,95.6395,264.4763,1.8781e-05,1.1e-07,0.0,0 STARLINK-3795,1 52264U 22041D   24165.19461080  .00000011  00000-0  18781-4 0  9996,2 52264  53.2189  77.4833 0001453  95.6395 264.4763 15.08833489119788,6917.9,95.438,540.77,538.76,0.0
52264.0,STARLINK-3795,PAYLOAD,2024-06-13 11:01:46,15.08842226,0.0001414,53.2192,76.2963,93.2852,266.8302,0.00010018,1.307e-05,0.0,0 STARLINK-3795,1 52264U 22041D   24165.45956342  .00001307  00000-0  10018-3 0  9998,2 52264  53.2192  76.2963 0001414  93.2852 266.8302 15.08842226119821,6917.874,95.437,540.717,538.76,0.0
52264.0,STARLINK-3795,PAYLOAD,2024-06-13 22:09:28,15.08834291,0.0001774,53.2178,74.2152,93.7802,266.3393,5.0798e-05,5.2e-06,0.0,0 STARLINK-3795,1 52264U 22041D   24165.92324759  .00000520  00000-0  50798-4 0  9997,2 52264  53.2178  74.2152 0001774  93.7802 266.3393 15.08834291118683,6917.898,95.438,540.99,538.536,0.0
52264.0,STARLINK-3795,PAYLOAD,2024-06-14 10:52:32,15.08851839,0.0001531,53.2197,71.8322,82.402,277.7146,8.9471e-05,1.137e-05,0.0,0 STARLINK-3795,1 52264U 22041D   24166.45315798  .00001137  00000-0  89471-4 0  9994,2 52264  53.2197  71.8322 0001531  82.4020 277.7146 15.08851839118762,6917.844,95.437,540.768,538.65,0.0
52264.0,STARLINK-3795,PAYLOAD,2024-06-14 22:00:15,15.08834106,0.0001888,53.2183,69.7515,81.4954,278.6252,0.00020405,2.96e-05,0.0,0 STARLINK-3795,1 52264U 22041D   24166.91684937  .00002960  00000-0  20405-3 0  9995,2 52264  53.2183  69.7515 0001888  81.4954 278.6252 15.08834106118831,6917.898,95.438,541.07,538.457,0.0
52264.0,STARLINK-3795,PAYLOAD,2024-06-15 10:43:19,15.08850508,0.0001409,53.2186,67.374,80.1942,279.9209,0.00015379,2.161e-05,0.0,0 STARLINK-3795,1 52264U 22041D   24167.44675910  .00002161  00000-0  15379-3 0  9992,2 52264  53.2186  67.3740 0001409  80.1942 279.9209 15.08850508118919,6917.848,95.437,540.688,538.739,0.0
52264.0,STARLINK-3795,PAYLOAD,2024-06-15 23:26:25,15.08837663,0.0001405,53.2187,64.9951,79.649,280.4661,0.0001178,1.587e-05,0.0,0 STARLINK-3795,1 52264U 22041D   24167.97668978  .00001587  00000-0  11780-3 0  9999,2 52264  53.2187  64.9951 0001405  79.6490 280.4661 15.08837663118998,6917.888,95.438,540.724,538.781,0.0
52264.0,STARLINK-3795,PAYLOAD,2024-06-16 10:34:07,15.08851796,0.0001672,53.2185,62.9118,90.7392,269.3792,0.0001396,1.935e-05,0.0,0 STARLINK-3795,1 52264U 22041D   24168.44035977  .00001935  00000-0  13960-3 0  9998,2 52264  53.2185  62.9118 0001672  90.7392 269.3792 15.08851796119063,6917.844,95.437,540.866,538.553,0.0
52264.0,STARLINK-3795,PAYLOAD,2024-06-16 23:17:13,15.08834831,0.0001492,53.2177,60.5342,93.1341,266.9822,5.2085e-05,5.41e-06,0.0,0 STARLINK-3795,1 52264U 22041D   24168.97028967  .00000541  00000-0  52085-4 0  9991,2 52264  53.2177  60.5342 0001492  93.1341 266.9822 15.08834831119145,6917.896,95.438,540.793,538.729,0.0
52264.0,STARLINK-3795,PAYLOAD,2024-06-17 19:57:13,15.08841223,0.0001571,53.2162,56.6677,97.6206,262.4964,0.00019394,2.8e-05,0.0,0 STARLINK-3795,1 52264U 22041D   24169.83140806  .00002800  00000-0  19394-3 0  9999,2 52264  53.2162  56.6677 0001571  97.6206 262.4964 15.08841223120483,6917.877,95.437,540.828,538.655,0.0
52264.0,STARLINK-3795,PAYLOAD,2024-06-17 23:07:59,15.08842397,0.0001536,53.2172,56.0748,91.9374,268.1794,0.00022129,3.236e-05,0.0,0 STARLINK-3795,1 52264U 22041D   24169.96388857  .00003236  00000-0  22129-3 0  9997,2 52264  53.2172  56.0748 0001536  91.9374 268.1794 15.08842397119295,6917.873,95.437,540.801,538.675,0.0
52264.0,STARLINK-3795,PAYLOAD,2024-06-18 02:18:46,15.08845853,0.0001494,53.2167,55.4796,93.4145,266.7018,0.00028975,4.327e-05,0.0,0 STARLINK-3795,1 52264U 22041D   24170.09636766  .00004327  00000-0  28975-3 0  9995,2 52264  53.2167  55.4796 0001494  93.4145 266.7018 15.08845853119317,6917.862,95.437,540.761,538.694,0.0
52264.0,STARLINK-3795,PAYLOAD,2024-06-18 22:58:47,15.08843517,0.0001344,53.217,51.6133,91.4979,268.6167,0.00025663,3.799e-05,0.0,0 STARLINK-3795,1 52264U 22041D   24170.95748865  .00003799  00000-0  25663-3 0  9997,2 52264  53.2170  51.6133 0001344  91.4979 268.6167 15.08843517119446,6917.87,95.437,540.664,538.805,0.0
52264.0,STARLINK-3795,PAYLOAD,2024-06-19 08:31:05,15.08850795,0.0001386,53.2179,49.8287,91.58,268.5351,0.00027178,4.041e-05,0.0,0 STARLINK-3795,1 52264U 22041D   24171.35492395  .00004041  00000-0  27178-3 0  9990,2 52264  53.2179  49.8287 0001386  91.5800 268.5351 15.08850795119501,6917.847,95.437,540.671,538.754,0.0
52264.0,STARLINK-3795,PAYLOAD,2024-06-19 21:14:10,15.08837728,0.0001823,53.2189,47.4558,116.3937,243.7243,-5.9022e-05,-1.227e-05,0.0,0 STARLINK-3795,1 52264U 22041D   24171.88484901 -.00001227  00000-0 -59022-4 0  9991,2 52264  53.2189  47.4558 0001823 116.3937 243.7243 15.08837728119584,6917.887,95.438,541.013,538.491,0.0
52264.0,STARLINK-3795,PAYLOAD,2024-06-20 08:21:52,15.08845454,0.0001448,53.2184,45.3688,89.6929,270.4229,0.00010858,1.441e-05,0.0,0 STARLINK-3795,1 52264U 22041D   24172.34852586  .00001441  00000-0  10858-3 0  9990,2 52264  53.2184  45.3688 0001448  89.6929 270.4229 15.08845454119650,6917.864,95.437,540.73,538.727,0.0
52264.0,STARLINK-3795,PAYLOAD,2024-06-20 21:04:58,15.08832647,0.0001376,53.2186,42.9923,97.7837,262.3311,-5.8106e-05,-1.212e-05,0.0,0 STARLINK-3795,1 52264U 22041D   24172.87845387 -.00001212  00000-0 -58106-4 0  9996,2 52264  53.2186  42.9923 0001376  97.7837 262.3311 15.08832647119736,6917.903,95.438,540.72,538.816,0.0
52264.0,STARLINK-3795,PAYLOAD,2024-06-21 01:51:07,15.08837195,0.0001442,53.2188,42.1004,98.5078,261.6078,1.9733e-05,2.6e-07,0.0,0 STARLINK-3795,1 52264U 22041D   24173.07717251  .00000026  00000-0  19733-4 0  9990,2 52264  53.2188  42.1004 0001442  98.5078 261.6078 15.08837195120973,6917.889,95.438,540.752,538.756,0.0
